[{"OBJECT_NAME":"ONEWEB-0264","OBJECT_ID":"2021-060R","EPOCH":"2026-06-12T05:52:05.568096","MEAN_MOTION":13.16594954,"ECCENTRICITY":0.0001877,"INCLINATION":87.9098,"RA_OF_ASC_NODE":229.7661,"ARG_OF_PERICENTER":93.724,"MEAN_ANOMALY":266.4106,"EPHEMERIS_TYPE":0,"CLASSIFICATION_TYPE":"U","NORAD_CAT_ID":48982,"ELEMENT_SET_NO":999,"REV_AT_EPOCH":23894,"BSTAR":0.00025226,"MEAN_MOTION_DOT":1.09e-06,"MEAN_MOTION_DDOT":0.0},{"OBJECT_NAME":"ONEWEB-0266","OBJECT_ID":"2021-060T","EPOCH":"2026-06-12T04:33:25.753824","MEAN_MOTION":13.16594122,"ECCENTRICITY":0.000212,"INCLINATION":87.9102,"RA_OF_ASC_NODE":229.7673,"ARG_OF_PERICENTER":99.4345,"MEAN_ANOMALY":260.7026,"EPHEMERIS_TYPE":0,"CLASSIFICATION_TYPE":"U","NORAD_CAT_ID":48984,"ELEMENT_SET_NO":999,"REV_AT_EPOCH":23892,"BSTAR":0.00011557,"MEAN_MOTION_DOT":5.7e-07,"MEAN_MOTION_DDOT":0.0},{"OBJECT_NAME":"ONEWEB-0267","OBJECT_ID":"2021-060U","EPOCH":"2026-06-12T04:49:23.438208","MEAN_MOTION":13.16594443,"ECCENTRICITY":0.0001826,"INCLINATION":87.91,"RA_OF_ASC_NODE":229.7615,"ARG_OF_PERICENTER":97.5738,"MEAN_ANOMALY":262.56,"EPHEMERIS_TYPE":0,"CLASSIFICATION_TYPE":"U","NORAD_CAT_ID":48985,"ELEMENT_SET_NO":999,"REV_AT_EPOCH":23893,"BSTAR":3.7977e-05,"MEAN_MOTION_DOT":2.7e-07,"MEAN_MOTION_DDOT":0.0},{"OBJECT_NAME":"ONEWEB-0268","OBJECT_ID":"2021-060V","EPOCH":"2026-06-12T05:53:12.725952","MEAN_MOTION":13.16595704,"ECCENTRICITY":0.0002053,"INCLINATION":87.91,"RA_OF_ASC_NODE":229.7626,"ARG_OF_PERICENTER":94.743,"MEAN_ANOMALY":265.3935,"EPHEMERIS_TYPE":0,"CLASSIFICATION_TYPE":"U","NORAD_CAT_ID":48986,"ELEMENT_SET_NO":999,"REV_AT_EPOCH":23920,"BSTAR":0.00026103,"MEAN_MOTION_DOT":1.13e-06,"MEAN_MOTION_DDOT":0.0},{"OBJECT_NAME":"ONEWEB-0269","OBJECT_ID":"2021-060W","EPOCH":"2026-06-12T05:25:52.030560","MEAN_MOTION":13.16594226,"ECCENTRICITY":0.000219,"INCLINATION":87.909,"RA_OF_ASC_NODE":229.7694,"ARG_OF_PERICENTER":94.514,"MEAN_ANOMALY":265.6241,"EPHEMERIS_TYPE":0,"CLASSIFICATION_TYPE":"U","NORAD_CAT_ID":48987,"ELEMENT_SET_NO":999,"REV_AT_EPOCH":23897,"BSTAR":5.2795000000000005e-05,"MEAN_MOTION_DOT":3.3e-07,"MEAN_MOTION_DDOT":0.0},{"OBJECT_NAME":"ONEWEB-0270","OBJECT_ID":"2021-060X","EPOCH":"2026-06-12T05:50:56.967360","MEAN_MOTION":13.16594179,"ECCENTRICITY":0.0001771,"INCLINATION":87.9099,"RA_OF_ASC_NODE":229.7647,"ARG_OF_PERICENTER":106.6077,"MEAN_ANOMALY":253.5249,"EPHEMERIS_TYPE":0,"CLASSIFICATION_TYPE":"U","NORAD_CAT_ID":48988,"ELEMENT_SET_NO":999,"REV_AT_EPOCH":23901,"BSTAR":0.00016904,"MEAN_MOTION_DOT":7.7e-07,"MEAN_MOTION_DDOT":0.0},{"OBJECT_NAME":"ONEWEB-0271","OBJECT_ID":"2021-060Y","EPOCH":"2026-06-12T05:32:42.555840","MEAN_MOTION":13.16593963,"ECCENTRICITY":0.000178,"INCLINATION":87.9098,"RA_OF_ASC_NODE":229.7573,"ARG_OF_PERICENTER":100.0418,"MEAN_ANOMALY":260.0914,"EPHEMERIS_TYPE":0,"CLASSIFICATION_TYPE":"U","NORAD_CAT_ID":48989,"ELEMENT_SET_NO":999,"REV_AT_EPOCH":23901,"BSTAR":-1.1154e-05,"MEAN_MOTION_DOT":9e-08,"MEAN_MOTION_DDOT":0.0},{"OBJECT_NAME":"ONEWEB-0272","OBJECT_ID":"2021-060Z","EPOCH":"2026-06-12T06:04:36.385824","MEAN_MOTION":13.16592535,"ECCENTRICITY":0.0001874,"INCLINATION":87.91,"RA_OF_ASC_NODE":229.7647,"ARG_OF_PERICENTER":90.0037,"MEAN_ANOMALY":270.1309,"EPHEMERIS_TYPE":0,"CLASSIFICATION_TYPE":"U","NORAD_CAT_ID":48990,"ELEMENT_SET_NO":999,"REV_AT_EPOCH":23896,"BSTAR":0.00015498,"MEAN_MOTION_DOT":7.2e-07,"MEAN_MOTION_DDOT":0.0},{"OBJECT_NAME":"ONEWEB-0273","OBJECT_ID":"2021-060AA","EPOCH":"2026-06-12T04:47:06.609984","MEAN_MOTION":13.16594655,"ECCENTRICITY":0.0001924,"INCLINATION":87.9102,"RA_OF_ASC_NODE":229.7742,"ARG_OF_PERICENTER":100.6867,"MEAN_ANOMALY":259.448,"EPHEMERIS_TYPE":0,"CLASSIFICATION_TYPE":"U","NORAD_CAT_ID":48991,"ELEMENT_SET_NO":999,"REV_AT_EPOCH":23893,"BSTAR":-3.8143000000000004e-05,"MEAN_MOTION_DOT":-2e-08,"MEAN_MOTION_DDOT":0.0},{"OBJECT_NAME":"ONEWEB-0274","OBJECT_ID":"2021-060AB","EPOCH":"2026-06-12T05:23:34.584576","MEAN_MOTION":13.16593884,"ECCENTRICITY":0.0002004,"INCLINATION":87.9088,"RA_OF_ASC_NODE":229.7724,"ARG_OF_PERICENTER":89.2947,"MEAN_ANOMALY":270.8413,"EPHEMERIS_TYPE":0,"CLASSIFICATION_TYPE":"U","NORAD_CAT_ID":48992,"ELEMENT_SET_NO":999,"REV_AT_EPOCH":23897,"BSTAR":3.3117000000000004e-06,"MEAN_MOTION_DOT":1.4e-07,"MEAN_MOTION_DDOT":0.0},{"OBJECT_NAME":"ONEWEB-0275","OBJECT_ID":"2021-060AC","EPOCH":"2026-06-12T05:07:37.981056","MEAN_MOTION":13.16594251,"ECCENTRICITY":0.0001968,"INCLINATION":87.91,"RA_OF_ASC_NODE":229.7631,"ARG_OF_PERICENTER":96.035,"MEAN_ANOMALY":264.1005,"EPHEMERIS_TYPE":0,"CLASSIFICATION_TYPE":"U","NORAD_CAT_ID":48993,"ELEMENT_SET_NO":999,"REV_AT_EPOCH":23890,"BSTAR":-2.1631e-05,"MEAN_MOTION_DOT":5e-08,"MEAN_MOTION_DDOT":0.0},{"OBJECT_NAME":"ONEWEB-0276","OBJECT_ID":"2021-060AD","EPOCH":"2026-06-12T04:06:04.076928","MEAN_MOTION":13.16594206,"ECCENTRICITY":0.0001989,"INCLINATION":87.9098,"RA_OF_ASC_NODE":229.7712,"ARG_OF_PERICENTER":93.2608,"MEAN_ANOMALY":266.875,"EPHEMERIS_TYPE":0,"CLASSIFICATION_TYPE":"U","NORAD_CAT_ID":48994,"ELEMENT_SET_NO":999,"REV_AT_EPOCH":23891,"BSTAR":0.00033692,"MEAN_MOTION_DOT":1.42e-06,"MEAN_MOTION_DDOT":0.0},{"OBJECT_NAME":"ONEWEB-0277","OBJECT_ID":"2021-060AE","EPOCH":"2026-06-12T04:24:19.046592","MEAN_MOTION":13.16593845,"ECCENTRICITY":0.0001878,"INCLINATION":87.9094,"RA_OF_ASC_NODE":229.7777,"ARG_OF_PERICENTER":100.67,"MEAN_ANOMALY":259.4643,"EPHEMERIS_TYPE":0,"CLASSIFICATION_TYPE":"U","NORAD_CAT_ID":48995,"ELEMENT_SET_NO":999,"REV_AT_EPOCH":23890,"BSTAR":0.00021736,"MEAN_MOTION_DOT":9.6e-07,"MEAN_MOTION_DDOT":0.0},{"OBJECT_NAME":"ONEWEB-0278","OBJECT_ID":"2021-060AF","EPOCH":"2026-06-12T04:10:35.982048","MEAN_MOTION":13.16596967,"ECCENTRICITY":0.0002261,"INCLINATION":87.9101,"RA_OF_ASC_NODE":229.7695,"ARG_OF_PERICENTER":101.3301,"MEAN_ANOMALY":258.8084,"EPHEMERIS_TYPE":0,"CLASSIFICATION_TYPE":"U","NORAD_CAT_ID":48996,"ELEMENT_SET_NO":999,"REV_AT_EPOCH":23903,"BSTAR":0.00031457,"MEAN_MOTION_DOT":1.33e-06,"MEAN_MOTION_DDOT":0.0},{"OBJECT_NAME":"ONEWEB-0279","OBJECT_ID":"2021-060AG","EPOCH":"2026-06-12T04:22:01.908192","MEAN_MOTION":13.16594823,"ECCENTRICITY":0.000178,"INCLINATION":87.91,"RA_OF_ASC_NODE":229.7661,"ARG_OF_PERICENTER":95.6523,"MEAN_ANOMALY":264.4811,"EPHEMERIS_TYPE":0,"CLASSIFICATION_TYPE":"U","NORAD_CAT_ID":48997,"ELEMENT_SET_NO":999,"REV_AT_EPOCH":23896,"BSTAR":0.0002877,"MEAN_MOTION_DOT":1.23e-06,"MEAN_MOTION_DDOT":0.0},{"OBJECT_NAME":"ONEWEB-0280","OBJECT_ID":"2021-060AH","EPOCH":"2026-06-12T04:43:40.631520","MEAN_MOTION":13.16593415,"ECCENTRICITY":0.0002046,"INCLINATION":87.9099,"RA_OF_ASC_NODE":229.7671,"ARG_OF_PERICENTER":108.1656,"MEAN_ANOMALY":251.9698,"EPHEMERIS_TYPE":0,"CLASSIFICATION_TYPE":"U","NORAD_CAT_ID":48998,"ELEMENT_SET_NO":999,"REV_AT_EPOCH":23890,"BSTAR":6.0134000000000004e-05,"MEAN_MOTION_DOT":3.6e-07,"MEAN_MOTION_DDOT":0.0},{"OBJECT_NAME":"ONEWEB-0281","OBJECT_ID":"2021-060AJ","EPOCH":"2026-06-12T04:51:40.273344","MEAN_MOTION":13.16595216,"ECCENTRICITY":0.0002113,"INCLINATION":87.9101,"RA_OF_ASC_NODE":229.7612,"ARG_OF_PERICENTER":98.9222,"MEAN_ANOMALY":261.2149,"EPHEMERIS_TYPE":0,"CLASSIFICATION_TYPE":"U","NORAD_CAT_ID":48999,"ELEMENT_SET_NO":999,"REV_AT_EPOCH":23897,"BSTAR":5.0773e-05,"MEAN_MOTION_DOT":3.2e-07,"MEAN_MOTION_DDOT":0.0},{"OBJECT_NAME":"ONEWEB-0282","OBJECT_ID":"2021-060AK","EPOCH":"2026-06-12T05:34:57.419328","MEAN_MOTION":13.16594938,"ECCENTRICITY":0.0001944,"INCLINATION":87.9096,"RA_OF_ASC_NODE":229.7641,"ARG_OF_PERICENTER":101.8005,"MEAN_ANOMALY":258.3344,"EPHEMERIS_TYPE":0,"CLASSIFICATION_TYPE":"U","NORAD_CAT_ID":49000,"ELEMENT_SET_NO":999,"REV_AT_EPOCH":23895,"BSTAR":-0.00046363,"MEAN_MOTION_DOT":-1.64e-06,"MEAN_MOTION_DDOT":0.0},{"OBJECT_NAME":"ONEWEB-0283","OBJECT_ID":"2021-060AL","EPOCH":"2026-06-12T05:19:01.319520","MEAN_MOTION":13.1659452,"ECCENTRICITY":0.0001899,"INCLINATION":87.9098,"RA_OF_ASC_NODE":229.7656,"ARG_OF_PERICENTER":96.918,"MEAN_ANOMALY":263.2167,"EPHEMERIS_TYPE":0,"CLASSIFICATION_TYPE":"U","NORAD_CAT_ID":49001,"ELEMENT_SET_NO":999,"REV_AT_EPOCH":23896,"BSTAR":-0.00010095,"MEAN_MOTION_DOT":-2.6e-07,"MEAN_MOTION_DDOT":0.0},{"OBJECT_NAME":"ONEWEB-0284","OBJECT_ID":"2021-060AM","EPOCH":"2026-06-12T05:09:54.673632","MEAN_MOTION":13.16594388,"ECCENTRICITY":0.0002203,"INCLINATION":87.9099,"RA_OF_ASC_NODE":229.7601,"ARG_OF_PERICENTER":106.3497,"MEAN_ANOMALY":253.7877,"EPHEMERIS_TYPE":0,"CLASSIFICATION_TYPE":"U","NORAD_CAT_ID":49002,"ELEMENT_SET_NO":999,"REV_AT_EPOCH":23894,"BSTAR":-5.5242000000000004e-05,"MEAN_MOTION_DOT":-8e-08,"MEAN_MOTION_DDOT":0.0},{"OBJECT_NAME":"ONEWEB-0285","OBJECT_ID":"2021-075A","EPOCH":"2026-06-12T06:10:32.739168","MEAN_MOTION":13.12444374,"ECCENTRICITY":0.0001769,"INCLINATION":87.8946,"RA_OF_ASC_NODE":351.6425,"ARG_OF_PERICENTER":91.4018,"MEAN_ANOMALY":268.7313,"EPHEMERIS_TYPE":0,"CLASSIFICATION_TYPE":"U","NORAD_CAT_ID":49075,"ELEMENT_SET_NO":999,"REV_AT_EPOCH":23456,"BSTAR":-0.00043782,"MEAN_MOTION_DOT":-1.45e-06,"MEAN_MOTION_DDOT":0.0},{"OBJECT_NAME":"ONEWEB-0286","OBJECT_ID":"2021-075B","EPOCH":"2026-06-12T05:44:43.620864","MEAN_MOTION":13.12442504,"ECCENTRICITY":0.0002008,"INCLINATION":87.8937,"RA_OF_ASC_NODE":351.6632,"ARG_OF_PERICENTER":87.0355,"MEAN_ANOMALY":273.1003,"EPHEMERIS_TYPE":0,"CLASSIFICATION_TYPE":"U","NORAD_CAT_ID":49076,"ELEMENT_SET_NO":999,"REV_AT_EPOCH":23391,"BSTAR":-0.0011662,"MEAN_MOTION_DOT":-4.07e-06,"MEAN_MOTION_DDOT":0.0},{"OBJECT_NAME":"ONEWEB-0287","OBJECT_ID":"2021-075C","EPOCH":"2026-06-12T01:53:39.425856","MEAN_MOTION":13.1764882,"ECCENTRICITY":0.0002274,"INCLINATION":87.9134,"RA_OF_ASC_NODE":6.8822,"ARG_OF_PERICENTER":87.0773,"MEAN_ANOMALY":273.0619,"EPHEMERIS_TYPE":0,"CLASSIFICATION_TYPE":"U","NORAD_CAT_ID":49077,"ELEMENT_SET_NO":999,"REV_AT_EPOCH":23295,"BSTAR":8.3262e-05,"MEAN_MOTION_DOT":4.5e-07,"MEAN_MOTION_DDOT":0.0}]